IRIDIUM 106             
1 41917U 17003A   25022.18062671  .00000193  00000+0  61979-4 0  9993
2 41917  86.3982 302.0675 0002317  91.4353 268.7108 14.34218874419964
IRIDIUM 103             
1 41918U 17003B   25022.16793660  .00000793  00000+0  27606-3 0  9995
2 41918  86.3983 301.9739 0001581  96.0826 264.0550 14.34214987419986
IRIDIUM 109             
1 41919U 17003C   25022.17428490 -.00000051  00000+0 -25242-4 0  9997
2 41919  86.3981 302.0221 0001840  79.2942 280.8461 14.34217206419954
IRIDIUM 102             
1 41920U 17003D   25021.79372848  .00000742  00000+0  25803-3 0  9998
2 41920  86.3981 302.1155 0002178  83.4399 276.7044 14.34221288419980
IRIDIUM 105             
1 41921U 17003E   25022.18307707  .00000130  00000+0  39311-4 0  9996
2 41921  86.3952 270.3724 0001962  87.6815 272.4605 14.34218222421899
IRIDIUM 104             
1 41922U 17003F   25022.22502449  .00000116  00000+0  34246-4 0  9998
2 41922  86.3981 301.9700 0001637  77.1285 283.0094 14.34217501420035
IRIDIUM 114             
1 41923U 17003G   25022.23134848  .00000382  00000+0  12925-3 0  9998
2 41923  86.3982 301.9527 0001935  89.4913 270.6505 14.34213904420019
IRIDIUM 108             
1 41924U 17003H   25021.98057626  .00001272  00000+0  44713-3 0  9997
2 41924  86.3949 270.3679 0002289  86.4803 273.6655 14.34216356421832
